{"type": "FeatureCollection", "features": [{"type": "Feature", "properties": {"norad_id": 25590, "name": "COSMOS 2361", "group": "musson", "lat": 57.90000155569985, "lon": 159.40060432966567, "alt_km": 1004.3904487282261, "timestamp": "2025-12-03T15:48:03.341705+00:00", "meta": {"OBJECT_NAME": "COSMOS 2361", "OBJECT_ID": "1998-076A", "EPOCH": "2025-12-03T03:16:39.347328", "MEAN_MOTION": 13.73215872, "ECCENTRICITY": 0.00301586, "INCLINATION": 82.9342, "RA_OF_ASC_NODE": 351.1897, "ARG_OF_PERICENTER": 293.4817, "MEAN_ANOMALY": 129.7779, "EPHEMERIS_TYPE": 0, "CLASSIFICATION_TYPE": "U", "NORAD_CAT_ID": 25590, "ELEMENT_SET_NO": 999, "REV_AT_EPOCH": 34979, "BSTAR": 8.1409927e-05, "MEAN_MOTION_DOT": 9e-07, "MEAN_MOTION_DDOT": 0}, "tle": {"line1": "1 25590U 98076A   25337.13656652  .00000090  00000+0  81410-4 0  9991", "line2": "2 25590  82.9342 351.1897 0030158 293.4817 129.7779 13.73215872349799"}}, "geometry": {"type": "Point", "coordinates": [159.40060432966567, 57.90000155569985]}}, {"type": "Feature", "properties": {"norad_id": 26818, "name": "COSMOS 2378", "group": "musson", "lat": 16.272509888333047, "lon": -175.61747321178024, "alt_km": 976.1968534353564, "timestamp": "2025-12-03T15:48:03.341723+00:00", "meta": {"OBJECT_NAME": "COSMOS 2378", "OBJECT_ID": "2001-023A", "EPOCH": "2025-12-03T08:04:15.664224", "MEAN_MOTION": 13.74140663, "ECCENTRICITY": 0.00319229, "INCLINATION": 82.928, "RA_OF_ASC_NODE": 6.6978, "ARG_OF_PERICENTER": 231.7478, "MEAN_ANOMALY": 139.6801, "EPHEMERIS_TYPE": 0, "CLASSIFICATION_TYPE": "U", "NORAD_CAT_ID": 26818, "ELEMENT_SET_NO": 999, "REV_AT_EPOCH": 22794, "BSTAR": 6.8749575e-05, "MEAN_MOTION_DOT": 8e-07, "MEAN_MOTION_DDOT": 0}, "tle": {"line1": "1 26818U 01023A   25337.33629241  .00000080  00000+0  68750-4 0  9998", "line2": "2 26818  82.9280   6.6978 0031922 231.7478 139.6801 13.74140663227948"}}, "geometry": {"type": "Point", "coordinates": [-175.61747321178024, 16.272509888333047]}}, {"type": "Feature", "properties": {"norad_id": 27436, "name": "COSMOS 2389", "group": "musson", "lat": -22.742947767563763, "lon": -49.26532137299433, "alt_km": 997.3064186935262, "timestamp": "2025-12-03T15:48:03.341734+00:00", "meta": {"OBJECT_NAME": "COSMOS 2389", "OBJECT_ID": "2002-026A", "EPOCH": "2025-12-03T07:42:47.507616", "MEAN_MOTION": 13.75153121, "ECCENTRICITY": 0.00477802, "INCLINATION": 82.9494, "RA_OF_ASC_NODE": 313.9578, "ARG_OF_PERICENTER": 86.3226, "MEAN_ANOMALY": 24.0425, "EPHEMERIS_TYPE": 0, "CLASSIFICATION_TYPE": "U", "NORAD_CAT_ID": 27436, "ELEMENT_SET_NO": 999, "REV_AT_EPOCH": 18019, "BSTAR": 7.2008677e-05, "MEAN_MOTION_DOT": 8.5e-07, "MEAN_MOTION_DDOT": 0}, "tle": {"line1": "1 27436U 02026A   25337.32138319  .00000085  00000+0  72009-4 0  9996", "line2": "2 27436  82.9494 313.9578 0047780  86.3226  24.0425 13.75153121180194"}}, "geometry": {"type": "Point", "coordinates": [-49.26532137299433, -22.742947767563763]}}, {"type": "Feature", "properties": {"norad_id": 27818, "name": "COSMOS 2398", "group": "musson", "lat": 20.179628880236677, "lon": -78.00151093130232, "alt_km": 1001.2204667317683, "timestamp": "2025-12-03T15:48:03.341744+00:00", "meta": {"OBJECT_NAME": "COSMOS 2398", "OBJECT_ID": "2003-023A", "EPOCH": "2025-12-03T07:41:46.457376", "MEAN_MOTION": 13.72384279, "ECCENTRICITY": 0.00322227, "INCLINATION": 82.9475, "RA_OF_ASC_NODE": 279.6397, "ARG_OF_PERICENTER": 137.0815, "MEAN_ANOMALY": 16.2221, "EPHEMERIS_TYPE": 0, "CLASSIFICATION_TYPE": "U", "NORAD_CAT_ID": 27818, "ELEMENT_SET_NO": 999, "REV_AT_EPOCH": 12687, "BSTAR": 4.6473178e-05, "MEAN_MOTION_DOT": 5.8e-07, "MEAN_MOTION_DDOT": 0}, "tle": {"line1": "1 27818U 03023A   25337.32067659  .00000058  00000+0  46473-4 0  9992", "line2": "2 27818  82.9475 279.6397 0032222 137.0815  16.2221 13.72384279126876"}}, "geometry": {"type": "Point", "coordinates": [-78.00151093130232, 20.179628880236677]}}, {"type": "Feature", "properties": {"norad_id": 28380, "name": "COSMOS 2407", "group": "musson", "lat": 82.76464695705111, "lon": -63.69845318562771, "alt_km": 940.0767459979779, "timestamp": "2025-12-03T15:48:03.341754+00:00", "meta": {"OBJECT_NAME": "COSMOS 2407", "OBJECT_ID": "2004-028A", "EPOCH": "2025-12-03T05:28:21.664128", "MEAN_MOTION": 13.76312024, "ECCENTRICITY": 0.0040528, "INCLINATION": 82.9614, "RA_OF_ASC_NODE": 219.9344, "ARG_OF_PERICENTER": 80.6345, "MEAN_ANOMALY": 36.6056, "EPHEMERIS_TYPE": 0, "CLASSIFICATION_TYPE": "U", "NORAD_CAT_ID": 28380, "ELEMENT_SET_NO": 999, "REV_AT_EPOCH": 7292, "BSTAR": 9.662319e-05, "MEAN_MOTION_DOT": 1.1e-06, "MEAN_MOTION_DDOT": 0}, "tle": {"line1": "1 28380U 04028A   25337.22802852  .00000110  00000+0  96623-4 0  9995", "line2": "2 28380  82.9614 219.9344 0040528  80.6345  36.6056 13.76312024 72925"}}, "geometry": {"type": "Point", "coordinates": [-63.69845318562771, 82.76464695705111]}}, {"type": "Feature", "properties": {"norad_id": 28521, "name": "COSMOS 2414", "group": "musson", "lat": -26.465852358728537, "lon": -172.0054452750291, "alt_km": 970.5182438735983, "timestamp": "2025-12-03T15:48:03.341764+00:00", "meta": {"OBJECT_NAME": "COSMOS 2414", "OBJECT_ID": "2005-002A", "EPOCH": "2025-12-03T07:16:44.807232", "MEAN_MOTION": 13.87901028, "ECCENTRICITY": 0.00403124, "INCLINATION": 82.9499, "RA_OF_ASC_NODE": 191.7951, "ARG_OF_PERICENTER": 166.1936, "MEAN_ANOMALY": 194.034, "EPHEMERIS_TYPE": 0, "CLASSIFICATION_TYPE": "U", "NORAD_CAT_ID": 28521, "ELEMENT_SET_NO": 999, "REV_AT_EPOCH": 5664, "BSTAR": 9.2236523e-05, "MEAN_MOTION_DOT": 1.26e-06, "MEAN_MOTION_DDOT": 0}, "tle": {"line1": "1 28521U 05002A   25337.30329638  .00000126  00000+0  92237-4 0  9994", "line2": "2 28521  82.9499 191.7951 0040312 166.1936 194.0340 13.87901028 56647"}}, "geometry": {"type": "Point", "coordinates": [-172.0054452750291, -26.465852358728537]}}, {"type": "Feature", "properties": {"norad_id": 32052, "name": "COSMOS 2429", "group": "musson", "lat": 15.578941724694587, "lon": 168.03568812637405, "alt_km": 987.5973721839719, "timestamp": "2025-12-03T15:48:03.341774+00:00", "meta": {"OBJECT_NAME": "COSMOS 2429", "OBJECT_ID": "2007-038A", "EPOCH": "2025-12-03T08:01:26.979456", "MEAN_MOTION": 13.7514803, "ECCENTRICITY": 0.00396295, "INCLINATION": 82.9805, "RA_OF_ASC_NODE": 350.243, "ARG_OF_PERICENTER": 63.4558, "MEAN_ANOMALY": 297.0652, "EPHEMERIS_TYPE": 0, "CLASSIFICATION_TYPE": "U", "NORAD_CAT_ID": 32052, "ELEMENT_SET_NO": 999, "REV_AT_EPOCH": 91473, "BSTAR": 7.9205018e-05, "MEAN_MOTION_DOT": 9.2e-07, "MEAN_MOTION_DDOT": 0}, "tle": {"line1": "1 32052U 07038A   25337.33434004  .00000092  00000+0  79205-4 0  9998", "line2": "2 32052  82.9805 350.2430 0039629  63.4558 297.0652 13.75148030914730"}}, "geometry": {"type": "Point", "coordinates": [168.03568812637405, 15.578941724694587]}}, {"type": "Feature", "properties": {"norad_id": 35635, "name": "COSMOS 2454", "group": "musson", "lat": -42.4416676791779, "lon": 169.03651277468316, "alt_km": 947.0601723517111, "timestamp": "2025-12-03T15:48:03.341784+00:00", "meta": {"OBJECT_NAME": "COSMOS 2454", "OBJECT_ID": "2009-039A", "EPOCH": "2025-12-03T08:11:47.137056", "MEAN_MOTION": 13.89926768, "ECCENTRICITY": 0.00204816, "INCLINATION": 82.9556, "RA_OF_ASC_NODE": 175.7691, "ARG_OF_PERICENTER": 98.862, "MEAN_ANOMALY": 73.9878, "EPHEMERIS_TYPE": 0, "CLASSIFICATION_TYPE": "U", "NORAD_CAT_ID": 35635, "ELEMENT_SET_NO": 999, "REV_AT_EPOCH": 83019, "BSTAR": 7.7317355e-05, "MEAN_MOTION_DOT": 1.11e-06, "MEAN_MOTION_DDOT": 0}, "tle": {"line1": "1 35635U 09039A   25337.34151779  .00000111  00000+0  77317-4 0  9991", "line2": "2 35635  82.9556 175.7691 0020481  98.8620  73.9878 13.89926768830195"}}, "geometry": {"type": "Point", "coordinates": [169.03651277468316, -42.4416676791779]}}, {"type": "Feature", "properties": {"norad_id": 36519, "name": "COSMOS 2463", "group": "musson", "lat": -53.533284183323275, "lon": -136.99248167386136, "alt_km": 996.1002805070166, "timestamp": "2025-12-03T15:48:03.341793+00:00", "meta": {"OBJECT_NAME": "COSMOS 2463", "OBJECT_ID": "2010-017A", "EPOCH": "2025-12-03T06:14:02.812992", "MEAN_MOTION": 13.71647845, "ECCENTRICITY": 0.00351057, "INCLINATION": 82.9622, "RA_OF_ASC_NODE": 33.6785, "ARG_OF_PERICENTER": 315.2427, "MEAN_ANOMALY": 111.9683, "EPHEMERIS_TYPE": 0, "CLASSIFICATION_TYPE": "U", "NORAD_CAT_ID": 36519, "ELEMENT_SET_NO": 999, "REV_AT_EPOCH": 78107, "BSTAR": 8.0288207e-05, "MEAN_MOTION_DOT": 8.7e-07, "MEAN_MOTION_DDOT": 0}, "tle": {"line1": "1 36519U 10017A   25337.25975478  .00000087  00000+0  80288-4 0  9994", "line2": "2 36519  82.9622  33.6785 0035105 315.2427 111.9683 13.71647845781073"}}, "geometry": {"type": "Point", "coordinates": [-136.99248167386136, -53.533284183323275]}}]}